CS1                     
1 49261U 21088B   26068.75173904  .00015722  00000+0  51176-3 0  9998
2 49261  97.3882 132.1684 0014129  78.0335 282.2490 15.31848439245182
STARLINK-35991          
1 66861U 25281P   26068.13212077  .00034257  00000+0  12485-2 0  9992
2 66861  43.0010 346.3275 0001081 261.1147  98.9583 15.27583694 16109
